ONEWEB-0427             
1 50499U 21132AG  24220.71134948  .00000085  00000+0  18394-3 0  9993
2 50499  87.9120 110.5226 0002081  81.6894 278.4474 13.18687205132193
ONEWEB-0429             
1 50500U 21132AH  24220.77458338  .00000045  00000+0  81451-4 0  9995
2 50500  87.9127 110.5192 0001720  73.0938 287.0382 13.18687765132171
ONEWEB-0430             
1 50501U 21132AJ  24220.76351845  .00000086  00000+0  18654-3 0  9999
2 50501  87.9124 110.5244 0001504  86.6918 273.4386 13.18686316132214
ONEWEB-0432             
1 50502U 21132AK  24220.71925451  .00000036  00000+0  59141-4 0  9997
2 50502  87.9119 110.5251 0001845  92.7254 267.4089 13.18686530132161
ONEWEB-0440             
1 50503U 21132AL  24220.78248362  .00000108  00000+0  24053-3 0  9997
2 50503  87.9128 110.5030 0002000  60.5287 299.6044 13.18687782132168
ONEWEB-0450             
1 50504U 21132AM  24220.70042498  .00000089  00000+0  19230-3 0  9991
2 50504  87.9127 110.5478 0001460  74.5644 285.5649 13.18685579132184
ONEWEB-0410             
1 51622U 22012A   24220.80343128  .00000046  00000+0  84111-4 0  9990
2 51622  87.9188 140.9439 0003527  82.7371 277.4161 13.17650987124365
ONEWEB-0411             
1 51623U 22012B   24220.88205719  .00003085  00000+0  88016-2 0  9994
2 51623  87.8979 171.1819 0001668  97.8549 262.2767 13.10354804121733
